OBJECT_NAME,OBJECT_ID,EPOCH,MEAN_MOTION,ECCENTRICITY,INCLINATION,RA_OF_ASC_NODE,ARG_OF_PERICENTER,MEAN_ANOMALY,EPHEMERIS_TYPE,CLASSIFICATION_TYPE,NORAD_CAT_ID,ELEMENT_SET_NO,REV_AT_EPOCH,BSTAR,MEAN_MOTION_DOT,MEAN_MOTION_DDOT
UNISAT-7,2021-022P,2025-11-05T06:35:28.938336,15.33109622,.00112824,97.4046,207.7558,145.4378,214.7600,0,U,47945,999,25546,.47609517E-3,.15192E-3,0
GLOBAL-9,2021-023G,2025-11-03T14:34:48.291168,15.37786082,.0007473,44.9774,69.4987,311.0579,48.9661,0,U,47971,999,26012,.33437E-3,.12369E-3,0
STARLINK-1647,2021-024B,2025-11-04T09:07:34.099392,15.06406311,.00015049,53.0534,179.1569,85.8121,274.3040,0,U,47978,999,25567,.36173759E-3,.5112E-4,0
STARLINK-2303,2021-024E,2025-11-04T15:13:48.484416,15.06402505,.0001545,53.0543,178.0133,96.0170,264.0995,0,U,47981,999,25571,.25379E-3,.3501E-4,0
STARLINK-2273,2021-024S,2025-11-05T06:16:06.691584,15.06398333,.00015144,53.0512,135.1992,94.1197,265.9965,0,U,47993,999,25636,.58368631E-4,.588E-5,0
STARLINK-2266,2021-024W,2025-11-04T23:33:24.047712,15.06410109,.00014693,53.0520,151.4568,88.4406,271.6751,0,U,47997,999,25611,.34270376E-3,.4828E-4,0
STARLINK-2270,2021-024Z,2025-11-05T01:39:28.188000,15.06399781,.00017786,53.0535,81.2609,87.7578,272.3615,0,U,48000,999,25705,-.16219646E-3,-.2697E-4,0
STARLINK-2153,2021-024AJ,2025-11-04T21:01:27.127488,15.06404396,.00014858,53.0531,156.9268,89.9721,270.1438,0,U,48009,999,25597,.1738999E-3,.231E-4,0
STARLINK-2226,2021-024AK,2025-11-04T14:57:53.129376,15.06398751,.0001441,53.0526,178.0630,91.0190,269.0964,0,U,48010,999,25565,.20985E-3,.2846E-4,0
STARLINK-2285,2021-024AU,2025-11-04T23:38:41.744832,15.06401989,.00013266,53.0534,151.4376,93.2689,266.8451,0,U,48019,999,25605,.16721975E-3,.221E-4,0
STARLINK-2298,2021-024AX,2025-11-04T16:04:55.674912,15.06395216,.00013385,53.0512,173.1340,80.7729,279.3411,0,U,48022,999,25578,.63114123E-3,.9131E-4,0
STARLINK-2292,2021-024AY,2025-11-04T23:46:39.442656,15.06408466,.00015059,53.0519,171.4145,85.6876,274.4285,0,U,48023,999,25583,.23486564E-3,.3219E-4,0
STARLINK-2299,2021-024BE,2025-11-04T21:39:16.142688,15.06413250,.0001612,53.0525,171.8089,89.2051,270.9123,0,U,48029,999,25582,.35419858E-3,.5E-4,0
ONEWEB-0115,2021-025A,2025-11-05T05:07:33.852864,13.13469550,.00018225,87.9032,4.7289,99.6121,260.5214,0,U,48042,999,22419,.76486731E-3,.292E-5,0
ONEWEB-0152,2021-025B,2025-11-05T05:27:03.206880,13.13471444,.00018328,87.9021,4.7368,104.0365,256.0968,0,U,48043,999,22415,.10622021E-2,.401E-5,0
ONEWEB-0153,2021-025C,2025-11-05T04:55:21.477216,13.13472766,.00018132,87.9028,4.7443,97.0174,263.1161,0,U,48044,999,22414,.5793018E-4,.34E-6,0
ONEWEB-0154,2021-025D,2025-11-05T04:50:29.905728,13.13469626,.00019457,87.9028,4.7414,99.6066,260.5283,0,U,48045,999,22410,-.2650371E-3,-.84E-6,0
ONEWEB-0116,2021-025E,2025-11-05T03:56:51.962784,13.13468304,.00018088,87.9031,4.7322,103.2493,256.8838,0,U,48046,999,22424,.48200691E-3,.189E-5,0
ONEWEB-0150,2021-025F,2025-11-05T03:22:43.251168,13.13471875,.00016584,87.9031,4.7319,94.1758,265.9560,0,U,48047,999,22413,.61242763E-3,.236E-5,0
ONEWEB-0107,2021-025G,2025-11-05T05:14:53.316096,13.13470526,.00019293,87.9030,4.7136,91.0927,269.0424,0,U,48048,999,22412,.10837279E-2,.409E-5,0
ONEWEB-0101,2021-025H,2025-11-05T04:21:14.060736,13.13469284,.00019462,87.9031,4.7578,97.4362,262.6988,0,U,48049,999,22409,-.12606059E-2,-.448E-5,0
ONEWEB-0113,2021-025J,2025-11-05T05:05:51.387648,13.13981793,.00016152,87.9031,4.6846,101.7995,258.3315,0,U,48050,999,22419,.57637398E-3,.225E-5,0
ONEWEB-0112,2021-025K,2025-11-05T05:22:11.542080,13.13469189,.00017754,87.9033,4.7096,97.1481,262.9851,0,U,48051,999,22419,.10871744E-2,.41E-5,0
ONEWEB-0156,2021-025L,2025-11-05T03:44:40.081344,13.13472314,.00018186,87.9036,4.7348,94.7130,265.4207,0,U,48052,999,22416,.97108673E-3,.367E-5,0
ONEWEB-0161,2021-025M,2025-11-05T04:57:48.670848,13.13472200,.00018595,87.9023,4.7423,92.5825,267.5517,0,U,48053,999,22410,.13795644E-3,.63E-6,0
ONEWEB-0158,2021-025N,2025-11-05T03:59:17.812896,13.13471637,.00019281,87.9035,4.7325,108.3650,251.7689,0,U,48054,999,22422,.32325313E-3,.131E-5,0
ONEWEB-0157,2021-025P,2025-11-05T04:35:52.234656,13.13471777,.00020527,87.9030,4.7341,88.1589,271.9776,0,U,48055,999,22416,-.51513078E-3,-.175E-5,0
ONEWEB-0162,2021-025Q,2025-11-05T05:51:15.213312,13.13468935,.00016912,87.9036,4.7249,94.9814,265.1508,0,U,48056,999,22414,.18162922E-3,.79E-6,0
ONEWEB-0155,2021-025R,2025-11-05T04:11:30.556608,13.13468589,.00020129,87.9032,4.7443,97.7567,262.3791,0,U,48057,999,22427,-.20476349E-3,-.62E-6,0
ONEWEB-0149,2021-025S,2025-11-05T04:43:10.166880,13.13470132,.00016452,87.9030,4.7338,95.1979,264.9338,0,U,48058,999,22408,-.10123229E-2,-.357E-5,0
