47945,UNISAT-7,2021,93.93,-1.0,+,97.4,Active,0,LEO,Kazakhstan,Italy,Unknown,Unknown,Unknown,1 47945U 21022P   25309.27464049  .00015192  00000+0  47610-3 0  9999,2 47945  97.4046 207.7558 0011282 145.4378 214.7600 15.33109622255465,15.33109622,0.0011282,LEO
47971,GLOBAL-9,2021,93.64,56.0,+,44.98,Active,1,LEO,New Zealand,USA,Commercial,Earth Observation,Electron,1 47971U 21023G   25307.60750337  .00012369  00000+0  33437-3 0  9997,2 47971  44.9774  69.4987 0007473 311.0579  48.9661 15.37786082260127,15.37786082,0.0007473,LEO
47978,STARLINK-1647,2021,95.59,260.0,+,53.05,Active,1,LEO,USA,USA,Commercial,Communications,Falcon,1 47978U 21024B   25308.38025578  .00005112  00000+0  36174-3 0  9992,2 47978  53.0534 179.1569 0001504  85.8121 274.3040 15.06406311255672,15.06406311,0.0001504,LEO
47981,STARLINK-2303,2021,95.59,260.0,+,53.05,Active,1,LEO,USA,USA,Commercial,Communications,Falcon,1 47981U 21024E   25308.63458894  .00003501  00000+0  25379-3 0  9990,2 47981  53.0543 178.0133 0001545  96.0170 264.0995 15.06402505255715,15.06402505,0.0001545,LEO
47993,STARLINK-2273,2021,95.59,260.0,+,53.05,Active,1,LEO,USA,USA,Commercial,Communications,Falcon,1 47993U 21024S   25309.26118856  .00000588  00000+0  58369-4 0  9992,2 47993  53.0512 135.1992 0001514  94.1197 265.9965 15.06398333256367,15.06398333,0.0001514,LEO
47997,STARLINK-2266,2021,95.59,260.0,+,53.05,Active,1,LEO,USA,USA,Commercial,Communications,Falcon,1 47997U 21024W   25308.98152833  .00004828  00000+0  34270-3 0  9992,2 47997  53.0520 151.4568 0001469  88.4406 271.6751 15.06410109256114,15.06410109,0.0001469,LEO
48000,STARLINK-2270,2021,95.59,260.0,+,53.06,Active,1,LEO,USA,USA,Commercial,Communications,Falcon,1 48000U 21024Z   25309.06907625 -.00002697  00000+0 -16220-3 0  9994,2 48000  53.0535  81.2609 0001778  87.7578 272.3615 15.06399781257050,15.06399781,0.0001778,LEO
48009,STARLINK-2153,2021,95.59,260.0,+,53.05,Active,1,LEO,USA,USA,Commercial,Communications,Falcon,1 48009U 21024AJ  25308.87600842  .00002310  00000+0  17390-3 0  9991,2 48009  53.0531 156.9268 0001485  89.9721 270.1438 15.06404396255972,15.06404396,0.0001485,LEO
48010,STARLINK-2226,2021,95.59,260.0,+,53.05,Active,1,LEO,USA,USA,Commercial,Communications,Falcon,1 48010U 21024AK  25308.62353159  .00002846  00000+0  20985-3 0  9990,2 48010  53.0526 178.0630 0001441  91.0190 269.0964 15.06398751255655,15.06398751,0.0001441,LEO
48019,STARLINK-2285,2021,95.59,260.0,+,53.05,Active,1,LEO,USA,USA,Commercial,Communications,Falcon,1 48019U 21024AU  25308.98520538  .00002210  00000+0  16722-3 0  9994,2 48019  53.0534 151.4376 0001326  93.2689 266.8451 15.06401989256053,15.06401989,0.0001326,LEO
48022,STARLINK-2298,2021,95.59,260.0,+,53.05,Active,1,LEO,USA,USA,Commercial,Communications,Falcon,1 48022U 21024AX  25308.67008883  .00009131  00000+0  63114-3 0  9994,2 48022  53.0512 173.1340 0001338  80.7729 279.3411 15.06395216255783,15.06395216,0.0001338,LEO
48023,STARLINK-2292,2021,95.59,260.0,+,53.05,Active,1,LEO,USA,USA,Commercial,Communications,Falcon,1 48023U 21024AY  25308.99073429  .00003219  00000+0  23487-3 0  9998,2 48023  53.0519 171.4145 0001505  85.6876 274.4285 15.06408466255831,15.06408466,0.0001505,LEO
48029,STARLINK-2299,2021,95.59,260.0,+,53.05,Active,1,LEO,USA,USA,Commercial,Communications,Falcon,1 48029U 21024BE  25308.90227017  .00005000  00000+0  35420-3 0  9999,2 48029  53.0525 171.8089 0001612  89.2051 270.9123 15.06413250255827,15.0641325,0.0001612,LEO
48042,ONEWEB-0115,2021,109.63,148.0,+,87.9,Active,1,LEO,Russia,UK,Commercial,Communications,Soyuz,1 48042U 21025A   25309.21358626  .00000292  00000+0  76487-3 0  9997,2 48042  87.9032   4.7289 0001822  99.6121 260.5214 13.13469550224195,13.1346955,0.0001822,LEO
48043,ONEWEB-0152,2021,109.63,148.0,+,87.9,Active,1,LEO,Russia,UK,Commercial,Communications,Soyuz,1 48043U 21025B   25309.22712045  .00000401  00000+0  10622-2 0  9998,2 48043  87.9021   4.7368 0001832 104.0365 256.0968 13.13471444224151,13.13471444,0.0001832,LEO
48044,ONEWEB-0153,2021,109.63,148.0,+,87.9,Active,1,LEO,Russia,UK,Commercial,Communications,Soyuz,1 48044U 21025C   25309.20510969  .00000034  00000+0  57930-4 0  9995,2 48044  87.9028   4.7443 0001813  97.0174 263.1161 13.13472766224142,13.13472766,0.0001813,LEO
48045,ONEWEB-0154,2021,109.63,148.0,+,87.9,Active,1,LEO,Russia,UK,Commercial,Communications,Soyuz,1 48045U 21025D   25309.20173502 -.00000084  00000+0 -26504-3 0  9993,2 48045  87.9028   4.7414 0001945  99.6066 260.5283 13.13469626224108,13.13469626,0.0001945,LEO
48046,ONEWEB-0116,2021,109.63,148.0,+,87.9,Active,1,LEO,Russia,UK,Commercial,Communications,Soyuz,1 48046U 21025E   25309.16449031  .00000189  00000+0  48201-3 0  9994,2 48046  87.9031   4.7322 0001808 103.2493 256.8838 13.13468304224246,13.13468304,0.0001808,LEO
48047,ONEWEB-0150,2021,109.63,148.0,+,87.9,Active,1,LEO,Russia,UK,Commercial,Communications,Soyuz,1 48047U 21025F   25309.14077837  .00000236  00000+0  61243-3 0  9998,2 48047  87.9031   4.7319 0001658  94.1758 265.9560 13.13471875224136,13.13471875,0.0001658,LEO
48048,ONEWEB-0107,2021,109.63,148.0,+,87.9,Active,1,LEO,Russia,UK,Commercial,Communications,Soyuz,1 48048U 21025G   25309.21867264  .00000409  00000+0  10837-2 0  9992,2 48048  87.9030   4.7136 0001929  91.0927 269.0424 13.13470526224123,13.13470526,0.0001929,LEO
48049,ONEWEB-0101,2021,109.63,148.0,+,87.9,Active,1,LEO,Russia,UK,Commercial,Communications,Soyuz,1 48049U 21025H   25309.18141274 -.00000448  00000+0 -12606-2 0  9996,2 48049  87.9031   4.7578 0001946  97.4362 262.6988 13.13469284224096,13.13469284,0.0001946,LEO
48050,ONEWEB-0113,2021,109.59,148.0,+,87.9,Active,1,LEO,Russia,UK,Commercial,Communications,Soyuz,1 48050U 21025J   25309.21240032  .00000225  00000+0  57637-3 0  9999,2 48050  87.9031   4.6846 0001615 101.7995 258.3315 13.13981793224190,13.13981793,0.0001615,LEO
48051,ONEWEB-0112,2021,109.63,148.0,+,87.9,Active,1,LEO,Russia,UK,Commercial,Communications,Soyuz,1 48051U 21025K   25309.22374470  .00000410  00000+0  10872-2 0  9990,2 48051  87.9033   4.7096 0001775  97.1481 262.9851 13.13469189224192,13.13469189,0.0001775,LEO
48052,ONEWEB-0156,2021,109.63,148.0,+,87.9,Active,1,LEO,Russia,UK,Commercial,Communications,Soyuz,1 48052U 21025L   25309.15601946  .00000367  00000+0  97109-3 0  9994,2 48052  87.9036   4.7348 0001818  94.7130 265.4207 13.13472314224162,13.13472314,0.0001818,LEO
48053,ONEWEB-0161,2021,109.63,148.0,+,87.9,Active,1,LEO,Russia,UK,Commercial,Communications,Soyuz,1 48053U 21025M   25309.20681332  .00000063  00000+0  13796-3 0  9991,2 48053  87.9023   4.7423 0001859  92.5825 267.5517 13.13472200224100,13.134722,0.0001859,LEO
48054,ONEWEB-0158,2021,109.63,148.0,+,87.9,Active,1,LEO,Russia,UK,Commercial,Communications,Soyuz,1 48054U 21025N   25309.16617839  .00000131  00000+0  32325-3 0  9993,2 48054  87.9035   4.7325 0001928 108.3650 251.7689 13.13471637224225,13.13471637,0.0001928,LEO
48055,ONEWEB-0157,2021,109.63,148.0,+,87.9,Active,1,LEO,Russia,UK,Commercial,Communications,Soyuz,1 48055U 21025P   25309.19157679 -.00000175  00000+0 -51513-3 0  9998,2 48055  87.9030   4.7341 0002052  88.1589 271.9776 13.13471777224163,13.13471777,0.0002052,LEO
48056,ONEWEB-0162,2021,109.63,148.0,+,87.9,Active,1,LEO,Russia,UK,Commercial,Communications,Soyuz,1 48056U 21025Q   25309.24392608  .00000079  00000+0  18163-3 0  9993,2 48056  87.9036   4.7249 0001691  94.9814 265.1508 13.13468935224149,13.13468935,0.0001691,LEO
48057,ONEWEB-0155,2021,109.63,148.0,+,87.9,Active,1,LEO,Russia,UK,Commercial,Communications,Soyuz,1 48057U 21025R   25309.17465922 -.00000062  00000+0 -20476-3 0  9990,2 48057  87.9032   4.7443 0002012  97.7567 262.3791 13.13468589224278,13.13468589,0.0002012,LEO
48058,ONEWEB-0149,2021,109.63,148.0,+,87.9,Active,1,LEO,Russia,UK,Commercial,Communications,Soyuz,1 48058U 21025S   25309.19664545 -.00000357  00000+0 -10123-2 0  9999,2 48058  87.9030   4.7338 0001645  95.1979 264.9338 13.13470132224081,13.13470132,0.0001645,LEO
